GLOBALSTAR M069         
1 31573U 07020C   26164.58557404 -.00000072  00000+0  18536-3 0  9990
2 31573  52.0032 262.3214 0002416 140.3452 232.8824 12.23470996878369
GLOBALSTAR M072         
1 31574U 07020D   26164.55417056 -.00000100  00000+0 -22223-3 0  9997
2 31574  51.9920 109.9170 0001406 322.2382 209.7819 11.91658502874540
GLOBALSTAR M066         
1 32265U 07048C   26164.97796816 -.00000143  00000+0 -41048-3 0  9998
2 32265  51.9600  67.1246 0005436  37.2256 335.0313 12.30387931859838
GLOBALSTAR M079         
1 37188U 10054A   26164.59729323 -.00000114  00000+0 -57777-4 0  9990
2 37188  52.0029 119.5977 0000632  15.4577 156.3092 12.62266083722098
GLOBALSTAR M074         
1 37189U 10054B   26164.62374406 -.00000123  00000+0 -10916-3 0  9996
2 37189  52.0003 118.7824 0000468  47.5544 124.6708 12.62268404722709
GLOBALSTAR M076         
1 37190U 10054C   26164.64996885 -.00000114  00000+0 -59117-4 0  9998
2 37190  52.0022 118.9053 0000656  38.1353 133.4747 12.62261764722423
GLOBALSTAR M077         
1 37191U 10054D   26164.80962924 -.00000053  00000+0  45591-3 0  9995
2 37191  51.9923 187.8693 0002784 166.5457   4.1763 11.67547751720744
GLOBALSTAR M075         
1 37192U 10054E   26164.74225749 -.00000099  00000+0  27646-4 0  9998
2 37192  51.9919 160.6817 0000083  23.1406 147.8761 12.62267411721505
GLOBALSTAR M073         
1 37193U 10054F   26164.96038154 -.00000113  00000+0 -49007-4 0  9998
2 37193  52.0065  74.1146 0000863  41.8154  39.4282 12.62262125723522
GLOBALSTAR M083         
1 37739U 11033A   26164.87922141 -.00000094  00000+0  52997-4 0  9999
2 37739  51.9872  22.5949 0000897  61.9280 311.7794 12.62262989692538
GLOBALSTAR M088         
1 37740U 11033B   26164.61544971 -.00000098  00000+0  30875-4 0  9999
2 37740  52.0225 289.8194 0000764 121.1838 251.6203 12.62268648688041
GLOBALSTAR M091         
1 37741U 11033C   26164.97984812 -.00000080  00000+0  13032-3 0  9997
2 37741  51.9992 251.6807 0000375 146.1422  24.3689 12.62263849688875
GLOBALSTAR M085         
1 37742U 11033D   26164.88776637 -.00000074  00000+0  16846-3 0  9991
2 37742  52.0105 203.2496 0000107 240.7016 291.2624 12.62264087689379
GLOBALSTAR M081         
1 37743U 11033E   26164.83497618 -.00000070  00000+0  18653-3 0  9990
2 37743  51.9936 205.8505 0000159 120.3766  51.2023 12.62264965689519
GLOBALSTAR M089         
1 37744U 11033F   26164.71585332 -.00000091  00000+0  69250-4 0  9992
2 37744  51.9904 160.3716 0000343  91.9760  78.8721 12.62267193690345
GLOBALSTAR M084         
1 38040U 11080A   26164.93210872 -.00000095  00000+0  48070-4 0  9993
2 38040  52.0025  27.1917 0001072  80.5821 293.3855 12.62267505668351
GLOBALSTAR M080         
1 38041U 11080B   26164.92308515 -.00000094  00000+0  55935-4 0  9992
2 38041  52.0077  28.9364 0000352  70.3685  32.5991 12.62269311668473
GLOBALSTAR M082         
1 38042U 11080C   26164.76030412 -.00000094  00000+0  57212-4 0  9993
2 38042  52.0094 344.9320 0000557  91.2024 281.8139 12.62263736669167
GLOBALSTAR M092         
1 38043U 11080D   26164.90655238 -.00000112  00000+0 -46533-4 0  9995
2 38043  52.0093  74.8836 0000640  57.8609  19.0276 12.62266936667636
GLOBALSTAR M090         
1 38044U 11080E   26164.78716522 -.00000097  00000+0  39612-4 0  9997
2 38044  52.0143 338.8054 0000806  87.1790 286.9116 12.62269040669289
GLOBALSTAR M086         
1 38045U 11080F   26164.72944631 -.00000090  00000+0  75742-4 0  9993
2 38045  51.9914 338.9165 0001665  61.8560 310.5741 12.62286668669223
GLOBALSTAR M097         
1 39072U 13005A   26164.91628598 -.00000099  00000+0  28009-4 0  9998
2 39072  52.0048 253.2938 0000348 127.0316 233.0583 12.62247200616495
GLOBALSTAR M093         
1 39073U 13005B   26164.41444418 -.00000082  00000+0  12048-3 0  9998
2 39073  52.0102 248.1667 0000235 102.7360 257.3533 12.62265838616382
GLOBALSTAR M094         
1 39074U 13005C   26164.73108611 -.00000104  00000+0  72664-6 0  9994
2 39074  51.9930 161.3219 0000320 352.1063   7.9799 12.62268586618035
GLOBALSTAR M096         
1 39075U 13005D   26164.82373871 -.00000070  00000+0  18576-3 0  9998
2 39075  52.0054 209.8399 0000069 193.9555 166.1310 12.62265581616968
GLOBALSTAR M078         
1 39076U 13005E   26164.63836867 -.00000189  00000+0 -47637-3 0  9999
2 39076  51.9890 294.4173 0000529 214.5079 145.5753 12.62257981615569
GLOBALSTAR M095         
1 39077U 13005F   26164.66512898 -.00000103  00000+0  22191-5 0  9993
2 39077  52.0094 291.9356 0000296 126.9917 233.0977 12.62263353615427
GLOBALSTAR M087         
1 52888U 22064A   26164.91593672 -.00000109  00000+0 -30215-4 0  9992
2 52888  52.0004  72.4113 0000699  30.9515 329.1393 12.62268990190723
