OBJECT_NAME,OBJECT_ID,EPOCH,MEAN_MOTION,ECCENTRICITY,INCLINATION,RA_OF_ASC_NODE,ARG_OF_PERICENTER,MEAN_ANOMALY,EPHEMERIS_TYPE,CLASSIFICATION_TYPE,NORAD_CAT_ID,ELEMENT_SET_NO,REV_AT_EPOCH,BSTAR,MEAN_MOTION_DOT,MEAN_MOTION_DDOT
GLOBALSTAR M069,2007-020C,2026-06-13T14:03:13.597056,12.23470996,.0002416,52.0032,262.3214,140.3452,232.8824,0,U,31573,999,87836,.18536E-3,-.72E-6,0
GLOBALSTAR M072,2007-020D,2026-06-13T13:18:00.336384,11.91658502,.00014069,51.9920,109.9170,322.2382,209.7819,0,U,31574,999,87454,-.22222501E-3,-.1E-5,0
GLOBALSTAR M066,2007-048C,2026-06-13T23:28:16.449024,12.30387931,.00054365,51.9600,67.1246,37.2256,335.0313,0,U,32265,999,85983,-.41047812E-3,-.143E-5,0
GLOBALSTAR M079,2010-054A,2026-06-13T14:20:06.135072,12.62266083,.0000632,52.0029,119.5977,15.4577,156.3092,0,U,37188,999,72209,-.57777E-4,-.114E-5,0
GLOBALSTAR M074,2010-054B,2026-06-13T14:58:11.486784,12.62268404,.0000468,52.0003,118.7824,47.5544,124.6708,0,U,37189,999,72270,-.10916E-3,-.123E-5,0
GLOBALSTAR M076,2010-054C,2026-06-13T15:35:57.308640,12.62261764,.00006566,52.0022,118.9053,38.1353,133.4747,0,U,37190,999,72242,-.59116903E-4,-.114E-5,0
GLOBALSTAR M077,2010-054D,2026-06-13T19:25:51.966336,11.67547751,.00027844,51.9923,187.8693,166.5457,4.1763,0,U,37191,999,72074,.45591448E-3,-.53E-6,0
GLOBALSTAR M075,2010-054E,2026-06-13T17:48:51.047136,12.62267411,.0000083,51.9919,160.6817,23.1406,147.8761,0,U,37192,999,72150,.27646164E-4,-.99E-6,0
GLOBALSTAR M073,2010-054F,2026-06-13T23:02:56.965056,12.62262125,.00008636,52.0065,74.1146,41.8154,39.4282,0,U,37193,999,72352,-.49007359E-4,-.113E-5,0
GLOBALSTAR M083,2011-033A,2026-06-13T21:06:04.729824,12.62262989,.00008977,51.9872,22.5949,61.9280,311.7794,0,U,37739,999,69253,.52996719E-4,-.94E-6,0
GLOBALSTAR M088,2011-033B,2026-06-13T14:46:14.854944,12.62268648,.0000764,52.0225,289.8194,121.1838,251.6203,0,U,37740,999,68804,.30875E-4,-.98E-6,0
GLOBALSTAR M091,2011-033C,2026-06-13T23:30:58.877568,12.62263849,.00003759,51.9992,251.6807,146.1422,24.3689,0,U,37741,999,68887,.13031573E-3,-.8E-6,0
GLOBALSTAR M085,2011-033D,2026-06-13T21:18:23.014368,12.62264087,.00001075,52.0105,203.2496,240.7016,291.2624,0,U,37742,999,68937,.16846487E-3,-.74E-6,0
GLOBALSTAR M081,2011-033E,2026-06-13T20:02:21.941952,12.62264965,.00001596,51.9936,205.8505,120.3766,51.2023,0,U,37743,999,68951,.18652599E-3,-.7E-6,0
GLOBALSTAR M089,2011-033F,2026-06-13T17:10:49.726848,12.62267193,.00003436,51.9904,160.3716,91.9760,78.8721,0,U,37744,999,69034,.6924961E-4,-.91E-6,0
GLOBALSTAR M084,2011-080A,2026-06-13T22:22:14.193408,12.62267505,.00010722,52.0025,27.1917,80.5821,293.3855,0,U,38040,999,66835,.48069981E-4,-.95E-6,0
GLOBALSTAR M080,2011-080B,2026-06-13T22:09:14.556960,12.62269311,.00003521,52.0077,28.9364,70.3685,32.5991,0,U,38041,999,66847,.55935286E-4,-.94E-6,0
GLOBALSTAR M082,2011-080C,2026-06-13T18:14:50.275968,12.62263736,.00005571,52.0094,344.9320,91.2024,281.8139,0,U,38042,999,66916,.5721242E-4,-.94E-6,0
GLOBALSTAR M092,2011-080D,2026-06-13T21:45:26.125632,12.62266936,.00006408,52.0093,74.8836,57.8609,19.0276,0,U,38043,999,66763,-.46532648E-4,-.112E-5,0
GLOBALSTAR M090,2011-080E,2026-06-13T18:53:31.075008,12.62269040,.0000806,52.0143,338.8054,87.1790,286.9116,0,U,38044,999,66928,.39612202E-4,-.97E-6,0
GLOBALSTAR M086,2011-080F,2026-06-13T17:30:24.161184,12.62286668,.00016655,51.9914,338.9165,61.8560,310.5741,0,U,38045,999,66922,.75742362E-4,-.9E-6,0
GLOBALSTAR M097,2013-005A,2026-06-13T21:59:27.108672,12.62247200,.00003485,52.0048,253.2938,127.0316,233.0583,0,U,39072,999,61649,.28008785E-4,-.99E-6,0
GLOBALSTAR M093,2013-005B,2026-06-13T09:56:47.977152,12.62265838,.00002353,52.0102,248.1667,102.7360,257.3533,0,U,39073,999,61638,.12048402E-3,-.82E-6,0
GLOBALSTAR M094,2013-005C,2026-06-13T17:32:45.839904,12.62268586,.00003201,51.9930,161.3219,352.1063,7.9799,0,U,39074,999,61803,.726642E-6,-.104E-5,0
GLOBALSTAR M096,2013-005D,2026-06-13T19:46:11.024544,12.62265581,.00000694,52.0054,209.8399,193.9555,166.1310,0,U,39075,999,61696,.18575886E-3,-.7E-6,0
GLOBALSTAR M078,2013-005E,2026-06-13T15:19:15.053088,12.62257981,.0000529,51.9890,294.4173,214.5079,145.5753,0,U,39076,999,61556,-.47637E-3,-.189E-5,0
GLOBALSTAR M095,2013-005F,2026-06-13T15:57:47.143872,12.62263353,.00002965,52.0094,291.9356,126.9917,233.0977,0,U,39077,999,61542,.2219092E-5,-.103E-5,0
GLOBALSTAR M087,2022-064A,2026-06-13T21:58:56.932608,12.62268990,.00006991,52.0004,72.4113,30.9515,329.1393,0,U,52888,999,19072,-.30214775E-4,-.109E-5,0
